NUSAT-49 (KLARA DAN VO*)
1 60500U 24149AJ  26068.79810190  .00012912  00000+0  43568-3 0  9991
2 60500  97.3807 150.7380 0001132 286.7761  73.3356 15.30828857 86935
STARLINK-34281          
1 64260U 25120E   26068.53707389  .00024720  00000+0  84395-3 0  9998
2 64260  53.1584 117.3400 0001214  87.7826 272.3314 15.30201595 43840
